[{"OBJECT_NAME":"ONEWEB-0619","OBJECT_ID":"2023-004W","EPOCH":"2026-03-09T22:14:12.364800","MEAN_MOTION":13.17649939,"ECCENTRICITY":0.00014072,"INCLINATION":87.916,"RA_OF_ASC_NODE":25.5501,"ARG_OF_PERICENTER":78.8457,"MEAN_ANOMALY":281.2832,"EPHEMERIS_TYPE":0,"CLASSIFICATION_TYPE":"U","NORAD_CAT_ID":55160,"ELEMENT_SET_NO":999,"REV_AT_EPOCH":15452,"BSTAR":0.0003192211,"MEAN_MOTION_DOT":1.37e-6,"MEAN_MOTION_DDOT":0},{"OBJECT_NAME":"METEOR 3-4","OBJECT_ID":"1991-030A","EPOCH":"2026-03-09T22:37:43.485024","MEAN_MOTION":13.16698643,"ECCENTRICITY":0.00136956,"INCLINATION":82.5383,"RA_OF_ASC_NODE":254.5168,"ARG_OF_PERICENTER":49.9217,"MEAN_ANOMALY":59.7097,"EPHEMERIS_TYPE":0,"CLASSIFICATION_TYPE":"U","NORAD_CAT_ID":21232,"ELEMENT_SET_NO":999,"REV_AT_EPOCH":67604,"BSTAR":-0.00044279739,"MEAN_MOTION_DOT":-1.57e-6,"MEAN_MOTION_DDOT":0}]
